STARLINK-37400          
1 68777U 26086M   26193.59752555  .00013946  00000+0  43346-3 0  9996
2 68777  97.2839 230.0450 0001443 187.9983 172.1237 15.33449281 12978
STARLINK-37389          
1 68778U 26086N   26193.54041939  .00014064  00000+0  43698-3 0  9991
2 68778  97.2839 229.9710 0000874 232.6283 127.4880 15.33457903 12969
STARLINK-37391          
1 68779U 26086P   26193.53499366  .00012569  00000+0  39098-3 0  9999
2 68779  97.2834 229.9760 0001176  74.4942 285.6430 15.33447161 12963
STARLINK-37266          
1 68780U 26086Q   26193.59479839  .00020251  00000+0  62786-3 0  9997
2 68780  97.2833 230.0501 0003731 203.4558 156.6515 15.33442366 12970
STARLINK-37236          
1 68781U 26086R   26193.59209101  .00019584  00000+0  60745-3 0  9991
2 68781  97.2854 230.0494 0000670 204.8536 155.2675 15.33441649 12970
STARLINK-37390          
1 68782U 26086S   26193.58937396  .00017978  00000+0  55811-3 0  9998
2 68782  97.2841 230.0544 0000212  99.5842 260.5425 15.33431382 12970
STARLINK-37364          
1 68783U 26086T   26193.58393185  .00015636  00000+0  48552-3 0  9994
2 68783  97.2851 230.0611 0000682 138.5220 221.6075 15.33453660 12974
STARLINK-37401          
1 68784U 26086U   26193.58665800  .00015297  00000+0  47506-3 0  9992
2 68784  97.2865 230.0530 0002087  58.5135 301.6311 15.33452276 12971
STARLINK-37335          
1 68785U 26086V   26193.05101681  .00014116  00000+0  43877-3 0  9993
2 68785  97.2846 229.5621 0001214  83.8560 276.2821 15.33443556 12894
STARLINK-37404          
1 68786U 26086W   26193.57849856  .00013128  00000+0  40816-3 0  9996
2 68786  97.2861 230.0667 0001551  54.3017 305.8370 15.33451809 12970
STARLINK-37292          
1 68787U 26086X   26193.04829580  .00018025  00000+0  55919-3 0  9992
2 68787  97.2836 229.5642 0001297 126.3951 233.7412 15.33452214 12891
STARLINK-37403          
1 68788U 26086Y   26193.57577930  .00015479  00000+0  48069-3 0  9998
2 68788  97.2845 230.0749 0001502  70.1023 290.0382 15.33452878 12979
STARLINK-37413          
1 68789U 26086Z   26193.58121383  .00014160  00000+0  44002-3 0  9996
2 68789  97.2843 230.0656 0000506 105.1420 254.9879 15.33451479 12974
STARLINK-37313          
1 68790U 26086AA  26193.56637967  .00015561  00000+0  48322-3 0  9991
2 68790  97.2858 230.8508 0001174  86.2645 273.8732 15.33452769 13024
STARLINK-37471          
1 68802U 26089A   26193.54595598  .00004326  00000+0  13626-3 0  9995
2 68802  97.2852  40.2252 0002045  85.2668 274.8809 15.33440266 12533
STARLINK-37460          
1 68803U 26089B   26193.54325906  .00031328  00000+0  96824-3 0  9993
2 68803  97.2847  40.2302 0002448  97.4893 262.6628 15.33458219 12537
STARLINK-37473          
1 68804U 26089C   26193.54051440  .00017291  00000+0  53711-3 0  9994
2 68804  97.2856  40.2315 0001244  81.8777 278.2607 15.33419844 12534
STARLINK-36832          
1 68805U 26089D   26193.53507866  .00011391  00000+0  35456-3 0  9993
2 68805  97.2853  40.2393 0001317  83.2485 276.8907 15.33450555 12532
STARLINK-37370          
1 68806U 26089E   26193.53779948  .00012166  00000+0  37849-3 0  9995
2 68806  97.2842  40.2333 0002070 103.9768 256.1705 15.33448928 12534
STARLINK-37366          
1 68807U 26089F   26193.53235978  .00011032  00000+0  34345-3 0  9995
2 68807  97.2859  40.2430 0001829  90.0612 270.0840 15.33452521 12535
STARLINK-37446          
1 68808U 26089G   26193.52964118  .00010958  00000+0  34122-3 0  9999
2 68808  97.2864  40.2472 0001917 105.9002 254.2453 15.33448990 12534
STARLINK-37405          
1 68809U 26089H   26193.52692219  .00005635  00000+0  17671-3 0  9996
2 68809  97.2842  40.2483 0002773 113.0346 247.1189 15.33447954 12531
STARLINK-37447          
1 68810U 26089J   26193.52420520  .00011200  00000+0  34866-3 0  9992
2 68810  97.2855  40.2577 0001979  96.9948 263.1520 15.33450572 12532
STARLINK-37442          
1 68811U 26089K   26193.58402136  .00010219  00000+0  31840-3 0  9990
2 68811  97.2861  40.3279 0001763 105.8247 254.3190 15.33448834 12547
STARLINK-37431          
1 68812U 26089L   26193.58673921  .00008520  00000+0  26593-3 0  9994
2 68812  97.2853  40.3225 0001873  97.8531 262.2924 15.33446474 12549
STARLINK-37426          
1 68813U 26089M   26193.58129976  .00009749  00000+0  30383-3 0  9997
2 68813  97.2857  40.3337 0001915  92.9825 267.1637 15.33452643 12547
STARLINK-37459          
1 68814U 26089N   26193.57859442  .00009264  00000+0  28907-3 0  9996
2 68814  97.2859  40.3343 0002090  79.7377 280.4102 15.33428720 12541
STARLINK-37425          
1 68815U 26089P   26193.57313536  .00018713  00000+0  57997-3 0  9996
2 68815  97.2854  40.3424 0001362  62.8858 297.2524 15.33475393 12547
STARLINK-37315          
1 68816U 26089Q   26193.57586366  .00017615  00000+0  54644-3 0  9996
2 68816  97.2841  40.3386 0002061  97.7975 262.3502 15.33457259 12545
STARLINK-37444          
1 68817U 26089R   26193.57042676  .00015055  00000+0  46757-3 0  9990
2 68817  97.2837  40.3463 0002442  88.6129 271.5393 15.33454116 12549
