OBJECT_NAME,OBJECT_ID,EPOCH,MEAN_MOTION,ECCENTRICITY,INCLINATION,RA_OF_ASC_NODE,ARG_OF_PERICENTER,MEAN_ANOMALY,EPHEMERIS_TYPE,CLASSIFICATION_TYPE,NORAD_CAT_ID,ELEMENT_SET_NO,REV_AT_EPOCH,BSTAR,MEAN_MOTION_DOT,MEAN_MOTION_DDOT
STARLINK-37400,2026-086M,2026-07-12T14:20:26.207520,15.33449281,.00014438,97.2839,230.0450,187.9983,172.1237,0,U,68777,999,1297,.433458E-3,.13946E-3,0
STARLINK-37389,2026-086N,2026-07-12T12:58:12.235296,15.33457903,.00008744,97.2839,229.9710,232.6283,127.4880,0,U,68778,999,1296,.43697802E-3,.14064E-3,0
STARLINK-37391,2026-086P,2026-07-12T12:50:23.452224,15.33447161,.00011762,97.2834,229.9760,74.4942,285.6430,0,U,68779,999,1296,.39097599E-3,.12569E-3,0
STARLINK-37266,2026-086Q,2026-07-12T14:16:30.580896,15.33442366,.00037319,97.2833,230.0501,203.4558,156.6515,0,U,68780,999,1297,.6278612E-3,.20251E-3,0
STARLINK-37236,2026-086R,2026-07-12T14:12:36.663264,15.33441649,.00006702,97.2854,230.0494,204.8536,155.2675,0,U,68781,999,1297,.60745207E-3,.19584E-3,0
STARLINK-37390,2026-086S,2026-07-12T14:08:41.910144,15.33431382,.00002123,97.2841,230.0544,99.5842,260.5425,0,U,68782,999,1297,.55811472E-3,.17978E-3,0
STARLINK-37364,2026-086T,2026-07-12T14:00:51.711840,15.33453660,.00006823,97.2851,230.0611,138.5220,221.6075,0,U,68783,999,1297,.4855233E-3,.15636E-3,0
STARLINK-37401,2026-086U,2026-07-12T14:04:47.251200,15.33452276,.00020875,97.2865,230.0530,58.5135,301.6311,0,U,68784,999,1297,.47505517E-3,.15297E-3,0
STARLINK-37335,2026-086V,2026-07-12T01:13:27.852384,15.33443556,.00012149,97.2846,229.5621,83.8560,276.2821,0,U,68785,999,1289,.43876665E-3,.14116E-3,0
STARLINK-37404,2026-086W,2026-07-12T13:53:02.275584,15.33451809,.00015517,97.2861,230.0667,54.3017,305.8370,0,U,68786,999,1297,.40816428E-3,.13128E-3,0
STARLINK-37292,2026-086X,2026-07-12T01:09:32.757120,15.33452214,.00012978,97.2836,229.5642,126.3951,233.7412,0,U,68787,999,1289,.55918636E-3,.18025E-3,0
STARLINK-37403,2026-086Y,2026-07-12T13:49:07.331520,15.33452878,.00015027,97.2845,230.0749,70.1023,290.0382,0,U,68788,999,1297,.48069438E-3,.15479E-3,0
STARLINK-37413,2026-086Z,2026-07-12T13:56:56.874912,15.33451479,.00005065,97.2843,230.0656,105.1420,254.9879,0,U,68789,999,1297,.44001533E-3,.1416E-3,0
STARLINK-37313,2026-086AA,2026-07-12T13:35:35.203488,15.33452769,.00011745,97.2858,230.8508,86.2645,273.8732,0,U,68790,999,1302,.48321682E-3,.15561E-3,0
STARLINK-37471,2026-089A,2026-07-12T13:06:10.596672,15.33440266,.00020454,97.2852,40.2252,85.2668,274.8809,0,U,68802,999,1253,.13625657E-3,.4326E-4,0
STARLINK-37460,2026-089B,2026-07-12T13:02:17.582784,15.33458219,.0002448,97.2847,40.2302,97.4893,262.6628,0,U,68803,999,1253,.9682388E-3,.31328E-3,0
STARLINK-37473,2026-089C,2026-07-12T12:58:20.444160,15.33419844,.0001244,97.2856,40.2315,81.8777,278.2607,0,U,68804,999,1253,.53710872E-3,.17291E-3,0
STARLINK-36832,2026-089D,2026-07-12T12:50:30.796224,15.33450555,.00013176,97.2853,40.2393,83.2485,276.8907,0,U,68805,999,1253,.35455718E-3,.11391E-3,0
STARLINK-37370,2026-089E,2026-07-12T12:54:25.875072,15.33448928,.00020703,97.2842,40.2333,103.9768,256.1705,0,U,68806,999,1253,.37848736E-3,.12166E-3,0
STARLINK-37366,2026-089F,2026-07-12T12:46:35.884992,15.33452521,.0001829,97.2859,40.2430,90.0612,270.0840,0,U,68807,999,1253,.34344532E-3,.11032E-3,0
STARLINK-37446,2026-089G,2026-07-12T12:42:40.997952,15.33448990,.00019173,97.2864,40.2472,105.9002,254.2453,0,U,68808,999,1253,.34122152E-3,.10958E-3,0
STARLINK-37405,2026-089H,2026-07-12T12:38:46.077216,15.33447954,.0002773,97.2842,40.2483,113.0346,247.1189,0,U,68809,999,1253,.17670596E-3,.5635E-4,0
STARLINK-37447,2026-089J,2026-07-12T12:34:51.329280,15.33450572,.0001979,97.2855,40.2577,96.9948,263.1520,0,U,68810,999,1253,.34866322E-3,.112E-3,0
STARLINK-37442,2026-089K,2026-07-12T14:00:59.445504,15.33448834,.00017639,97.2861,40.3279,105.8247,254.3190,0,U,68811,999,1254,.31839743E-3,.10219E-3,0
STARLINK-37431,2026-089L,2026-07-12T14:04:54.267744,15.33446474,.00018731,97.2853,40.3225,97.8531,262.2924,0,U,68812,999,1254,.26592808E-3,.852E-4,0
STARLINK-37426,2026-089M,2026-07-12T13:57:04.299264,15.33452643,.00019158,97.2857,40.3337,92.9825,267.1637,0,U,68813,999,1254,.30383051E-3,.9749E-4,0
STARLINK-37459,2026-089N,2026-07-12T13:53:10.557888,15.33428720,.00020901,97.2859,40.3343,79.7377,280.4102,0,U,68814,999,1254,.28906956E-3,.9264E-4,0
STARLINK-37425,2026-089P,2026-07-12T13:45:18.895104,15.33475393,.00013624,97.2854,40.3424,62.8858,297.2524,0,U,68815,999,1254,.57997384E-3,.18713E-3,0
STARLINK-37315,2026-089Q,2026-07-12T13:49:14.620224,15.33457259,.00020615,97.2841,40.3386,97.7975,262.3502,0,U,68816,999,1254,.54644231E-3,.17615E-3,0
STARLINK-37444,2026-089R,2026-07-12T13:41:24.872064,15.33454116,.00024428,97.2837,40.3463,88.6129,271.5393,0,U,68817,999,1254,.46756944E-3,.15055E-3,0
